{
    "links": {
        "self": "http://www.neowsapp.com/rest/v1/neo/3788152?api_key=iIulBulltgU6a56xZRHN4H3l9WmuAYTsLGpBGhQ2"
    },
    "id": "3788152",
    "neo_reference_id": "3788152",
    "name": "(2017 UN43)",
    "designation": "2017 UN43",
    "nasa_jpl_url": "http://ssd.jpl.nasa.gov/sbdb.cgi?sstr=3788152",
    "absolute_magnitude_h": 26.0,
    "estimated_diameter": {
        "kilometers": {
            "estimated_diameter_min": 0.0167708462,
            "estimated_diameter_max": 0.0375007522
        },
        "meters": {
            "estimated_diameter_min": 16.7708462163,
            "estimated_diameter_max": 37.5007521798
        },
        "miles": {
            "estimated_diameter_min": 0.0104209175,
            "estimated_diameter_max": 0.0233018799
        },
        "feet": {
            "estimated_diameter_min": 55.0224631002,
            "estimated_diameter_max": 123.0339677816
        }
    },
    "is_potentially_hazardous_asteroid": false,
    "close_approach_data": [
        {
            "close_approach_date": "2000-11-11",
            "close_approach_date_full": "2000-Nov-11 17:39",
            "epoch_date_close_approach": 973964340000,
            "relative_velocity": {
                "kilometers_per_second": "25.4056644149",
                "kilometers_per_hour": "91460.3918936774",
                "miles_per_hour": "56829.9307297131"
            },
            "miss_distance": {
                "astronomical": "0.3050682041",
                "lunar": "118.6715313949",
                "kilometers": "45637553.538085267",
                "miles": "28357860.7970880046"
            },
            "orbiting_body": "Earth"
        },
        {
            "close_approach_date": "2017-10-27",
            "close_approach_date_full": "2017-Oct-27 12:09",
            "epoch_date_close_approach": 1509106140000,
            "relative_velocity": {
                "kilometers_per_second": "16.4160230606",
                "kilometers_per_hour": "59097.6830181949",
                "miles_per_hour": "36721.0019842778"
            },
            "miss_distance": {
                "astronomical": "0.0125675349",
                "lunar": "4.8887710761",
                "kilometers": "1880076.452190663",
                "miles": "1168225.3360626294"
            },
            "orbiting_body": "Earth"
        },
        {
            "close_approach_date": "2055-04-17",
            "close_approach_date_full": "2055-Apr-17 09:25",
            "epoch_date_close_approach": 2691566700000,
            "relative_velocity": {
                "kilometers_per_second": "28.3577198959",
                "kilometers_per_hour": "102087.7916252472",
                "miles_per_hour": "63433.3836351432"
            },
            "miss_distance": {
                "astronomical": "0.4068916155",
                "lunar": "158.2808384295",
                "kilometers": "60870118.999658985",
                "miles": "37822938.073444593"
            },
            "orbiting_body": "Earth"
        }
    ],
    "orbital_data": {
        "orbit_id": "1",
        "orbit_determination_date": "2017-10-30 15:42:05",
        "first_observation_date": "2017-10-29",
        "last_observation_date": "2017-10-30",
        "data_arc_in_days": 1,
        "observations_used": 29,
        "orbit_uncertainty": "8",
        "minimum_orbit_intersection": ".00412458",
        "jupiter_tisserand_invariant": "4.310",
        "epoch_osculation": "2458055.5",
        "eccentricity": ".5497675948325434",
        "semi_major_axis": "1.52787528121824",
        "inclination": "1.850021179184737",
        "ascending_node_longitude": "234.3850954138587",
        "orbital_period": "689.8112674910645",
        "perihelion_distance": ".6878989626587922",
        "perihelion_argument": "76.83483581331723",
        "aphelion_distance": "2.367851599777687",
        "perihelion_time": "2458003.700667080923",
        "mean_anomaly": "27.03313316219392",
        "mean_motion": ".5218818783714101",
        "equinox": "J2000",
        "orbit_class": {
            "orbit_class_type": "APO",
            "orbit_class_description": "Near-Earth asteroid orbits which cross the Earth’s orbit similar to that of 1862 Apollo",
            "orbit_class_range": "a (semi-major axis) > 1.0 AU; q (perihelion) < 1.017 AU"
        }
    },
    "is_sentry_object": false
}